[{"OBJECT_NAME":"JILIN-1 GAOFEN 2F","OBJECT_ID":"2021-097A","EPOCH":"2026-03-09T22:15:16.366464","MEAN_MOTION":15.06938169,"ECCENTRICITY":0.00186372,"INCLINATION":97.6538,"RA_OF_ASC_NODE":195.5232,"ARG_OF_PERICENTER":201.1609,"MEAN_ANOMALY":158.885,"EPHEMERIS_TYPE":0,"CLASSIFICATION_TYPE":"U","NORAD_CAT_ID":49338,"ELEMENT_SET_NO":999,"REV_AT_EPOCH":24136,"BSTAR":0.0003789548,"MEAN_MOTION_DOT":5.624e-5,"MEAN_MOTION_DDOT":0},{"OBJECT_NAME":"STARLINK-5805","OBJECT_ID":"2023-083AN","EPOCH":"2026-03-09T22:00:01.999584","MEAN_MOTION":15.07425035,"ECCENTRICITY":0.00022428,"INCLINATION":43.0016,"RA_OF_ASC_NODE":67.5854,"ARG_OF_PERICENTER":253.9847,"MEAN_ANOMALY":119.3845,"EPHEMERIS_TYPE":0,"CLASSIFICATION_TYPE":"U","NORAD_CAT_ID":56912,"ELEMENT_SET_NO":999,"REV_AT_EPOCH":572,"BSTAR":0.004636099,"MEAN_MOTION_DOT":0.00071934,"MEAN_MOTION_DDOT":0}]
